STARLINK-30367          
1 57791U 23134W   23258.83334491 -.00851716  00000+0 -56407-2 0  9990
2 57791  43.0017  89.7456 0002293 236.4280 335.3357 15.76888795  2933
TIANQI-21               
1 57792U 23135A   23258.72478050  .00000546  00000+0  27656-3 0  9990
2 57792  49.9720  60.2036 0012004 341.0937  18.9531 14.29174268  1488
TIANQI-22               
1 57793U 23135B   23258.51370444  .00000339  00000+0  19486-3 0  9998
2 57793  49.9691  61.0845 0012361 342.9264  17.1233 14.29363360  1452
TIANQI-23               
1 57794U 23135C   23258.51306800  .00000275  00000+0  16961-3 0  9998
2 57794  49.9731  61.0844 0012302 345.5870  14.4693 14.29485377  1457
TIANQI-24               
1 57795U 23135D   23258.51298643  .00000292  00000+0  17617-3 0  9992
2 57795  49.9739  61.0847 0013086 342.8268  17.2202 14.29506582  1459
CERES-1 R/B             
1 57796U 23135E   23258.76921387  .01986593  10478-4  77869-3 0  9996
2 57796  49.9061  51.4720 0348255  32.2488 329.9264 15.57705276  1605
YAOGAN-33 03            
1 57797U 23136A   23258.76673256  .00001063  00000+0  21779-3 0  9990
2 57797  98.1583 181.9786 0005457 213.8029 146.2825 14.62755370  1310
CZ-4C R/B               
1 57798U 23136B   23258.51958955  .00004556  00000+0  37721-3 0  9990
2 57798  98.1667 182.1971 0132605  27.5412 333.2751 14.92761384  1316
XRISM                   
1 57800U 23137A   23258.57096775  .00004131  00000+0  33595-3 0  9998
2 57800  31.0045 322.3384 0009959   1.7531 358.3137 14.97877910  1283
H-2A DEB                
1 57801U 23137B   23258.55124587  .00782348  00000+0  45472-1 0  9998
2 57801  31.0423 322.2469 0056710 349.3009  10.6422 15.07165364  1296
H-2A DEB                
1 57802U 23137C   23258.57159599  .00010187  00000+0  83884-3 0  9998
2 57802  31.0042 322.3442 0011372 349.7943  10.2459 14.97829490  1293
H-2A R/B                
1 57804U 23137E   23258.42580396  .00002138  00000+0  20223-1 0  9990
2 57804  30.3049  15.9978 8798189 244.6834 189.6655  0.65768929    63
H-2A DEB                
1 57805U 23137F   23258.57087022  .00016590  00000+0  13629-2 0  9995
2 57805  30.9997 322.3433 0010213 359.1793   0.8823 14.98021150  1214
H-2A DEB                
1 57806U 23137G   23257.53494468  .00046295  00000+0  43629-2 0  9995
2 57806  31.0385 329.3843 0036939 309.5595  50.1778 14.92151139  1056
H-2A DEB                
1 57807U 23137H   23258.63666425  .00017928  00000+0  14664-2 0  9990
2 57807  31.0087 321.9032 0010519   2.6224 357.4465 14.98194421  1211
STARLINK-30304          
1 57808U 23138A   23258.83334491 -.00736064  00000+0 -28516-2 0  9991
2 57808  43.0011 131.7763 0001244 240.8426 175.8918 15.87922069  2228
