[{"OBJECT_NAME":"STARLINK-30367","OBJECT_ID":"2023-134W","EPOCH":"2023-09-15T20:00:01.000224","MEAN_MOTION":15.76888795,"ECCENTRICITY":0.0002293,"INCLINATION":43.0017,"RA_OF_ASC_NODE":89.7456,"ARG_OF_PERICENTER":236.428,"MEAN_ANOMALY":335.3357,"EPHEMERIS_TYPE":0,"CLASSIFICATION_TYPE":"U","NORAD_CAT_ID":57791,"ELEMENT_SET_NO":999,"REV_AT_EPOCH":293,"BSTAR":-0.0056407,"MEAN_MOTION_DOT":-0.00851716,"MEAN_MOTION_DDOT":0},{"OBJECT_NAME":"TIANQI-21","OBJECT_ID":"2023-135A","EPOCH":"2023-09-15T17:23:41.035200","MEAN_MOTION":14.29174268,"ECCENTRICITY":0.0012004,"INCLINATION":49.972,"RA_OF_ASC_NODE":60.2036,"ARG_OF_PERICENTER":341.0937,"MEAN_ANOMALY":18.9531,"EPHEMERIS_TYPE":0,"CLASSIFICATION_TYPE":"U","NORAD_CAT_ID":57792,"ELEMENT_SET_NO":999,"REV_AT_EPOCH":148,"BSTAR":0.00027656,"MEAN_MOTION_DOT":5.46e-6,"MEAN_MOTION_DDOT":0},{"OBJECT_NAME":"TIANQI-22","OBJECT_ID":"2023-135B","EPOCH":"2023-09-15T12:19:44.063616","MEAN_MOTION":14.2936336,"ECCENTRICITY":0.0012361,"INCLINATION":49.9691,"RA_OF_ASC_NODE":61.0845,"ARG_OF_PERICENTER":342.9264,"MEAN_ANOMALY":17.1233,"EPHEMERIS_TYPE":0,"CLASSIFICATION_TYPE":"U","NORAD_CAT_ID":57793,"ELEMENT_SET_NO":999,"REV_AT_EPOCH":145,"BSTAR":0.00019486,"MEAN_MOTION_DOT":3.39e-6,"MEAN_MOTION_DDOT":0},{"OBJECT_NAME":"TIANQI-23","OBJECT_ID":"2023-135C","EPOCH":"2023-09-15T12:18:49.075200","MEAN_MOTION":14.29485377,"ECCENTRICITY":0.0012302,"INCLINATION":49.9731,"RA_OF_ASC_NODE":61.0844,"ARG_OF_PERICENTER":345.587,"MEAN_ANOMALY":14.4693,"EPHEMERIS_TYPE":0,"CLASSIFICATION_TYPE":"U","NORAD_CAT_ID":57794,"ELEMENT_SET_NO":999,"REV_AT_EPOCH":145,"BSTAR":0.00016961,"MEAN_MOTION_DOT":2.75e-6,"MEAN_MOTION_DDOT":0},{"OBJECT_NAME":"TIANQI-24","OBJECT_ID":"2023-135D","EPOCH":"2023-09-15T12:18:42.027552","MEAN_MOTION":14.29506582,"ECCENTRICITY":0.0013086,"INCLINATION":49.9739,"RA_OF_ASC_NODE":61.0847,"ARG_OF_PERICENTER":342.8268,"MEAN_ANOMALY":17.2202,"EPHEMERIS_TYPE":0,"CLASSIFICATION_TYPE":"U","NORAD_CAT_ID":57795,"ELEMENT_SET_NO":999,"REV_AT_EPOCH":145,"BSTAR":0.00017617,"MEAN_MOTION_DOT":2.92e-6,"MEAN_MOTION_DDOT":0},{"OBJECT_NAME":"CERES-1 R\/B","OBJECT_ID":"2023-135E","EPOCH":"2023-09-15T18:27:40.078368","MEAN_MOTION":15.57705276,"ECCENTRICITY":0.0348255,"INCLINATION":49.9061,"RA_OF_ASC_NODE":51.472,"ARG_OF_PERICENTER":32.2488,"MEAN_ANOMALY":329.9264,"EPHEMERIS_TYPE":0,"CLASSIFICATION_TYPE":"U","NORAD_CAT_ID":57796,"ELEMENT_SET_NO":999,"REV_AT_EPOCH":160,"BSTAR":0.00077869,"MEAN_MOTION_DOT":0.01986593,"MEAN_MOTION_DDOT":1.0478e-5},{"OBJECT_NAME":"YAOGAN-33 03","OBJECT_ID":"2023-136A","EPOCH":"2023-09-15T18:24:05.693184","MEAN_MOTION":14.6275537,"ECCENTRICITY":0.0005457,"INCLINATION":98.1583,"RA_OF_ASC_NODE":181.9786,"ARG_OF_PERICENTER":213.8029,"MEAN_ANOMALY":146.2825,"EPHEMERIS_TYPE":0,"CLASSIFICATION_TYPE":"U","NORAD_CAT_ID":57797,"ELEMENT_SET_NO":999,"REV_AT_EPOCH":131,"BSTAR":0.00021779,"MEAN_MOTION_DOT":1.063e-5,"MEAN_MOTION_DDOT":0},{"OBJECT_NAME":"CZ-4C R\/B","OBJECT_ID":"2023-136B","EPOCH":"2023-09-15T12:28:12.537120","MEAN_MOTION":14.92761384,"ECCENTRICITY":0.0132605,"INCLINATION":98.1667,"RA_OF_ASC_NODE":182.1971,"ARG_OF_PERICENTER":27.5412,"MEAN_ANOMALY":333.2751,"EPHEMERIS_TYPE":0,"CLASSIFICATION_TYPE":"U","NORAD_CAT_ID":57798,"ELEMENT_SET_NO":999,"REV_AT_EPOCH":131,"BSTAR":0.00037721,"MEAN_MOTION_DOT":4.556e-5,"MEAN_MOTION_DDOT":0},{"OBJECT_NAME":"XRISM","OBJECT_ID":"2023-137A","EPOCH":"2023-09-15T13:42:11.613600","MEAN_MOTION":14.9787791,"ECCENTRICITY":0.0009959,"INCLINATION":31.0045,"RA_OF_ASC_NODE":322.3384,"ARG_OF_PERICENTER":1.7531,"MEAN_ANOMALY":358.3137,"EPHEMERIS_TYPE":0,"CLASSIFICATION_TYPE":"U","NORAD_CAT_ID":57800,"ELEMENT_SET_NO":999,"REV_AT_EPOCH":128,"BSTAR":0.00033595,"MEAN_MOTION_DOT":4.131e-5,"MEAN_MOTION_DDOT":0},{"OBJECT_NAME":"H-2A DEB","OBJECT_ID":"2023-137B","EPOCH":"2023-09-15T13:13:47.643168","MEAN_MOTION":15.07165364,"ECCENTRICITY":0.005671,"INCLINATION":31.0423,"RA_OF_ASC_NODE":322.2469,"ARG_OF_PERICENTER":349.3009,"MEAN_ANOMALY":10.6422,"EPHEMERIS_TYPE":0,"CLASSIFICATION_TYPE":"U","NORAD_CAT_ID":57801,"ELEMENT_SET_NO":999,"REV_AT_EPOCH":129,"BSTAR":0.045472,"MEAN_MOTION_DOT":0.00782348,"MEAN_MOTION_DDOT":0},{"OBJECT_NAME":"H-2A DEB","OBJECT_ID":"2023-137C","EPOCH":"2023-09-15T13:43:05.893536","MEAN_MOTION":14.9782949,"ECCENTRICITY":0.0011372,"INCLINATION":31.0042,"RA_OF_ASC_NODE":322.3442,"ARG_OF_PERICENTER":349.7943,"MEAN_ANOMALY":10.2459,"EPHEMERIS_TYPE":0,"CLASSIFICATION_TYPE":"U","NORAD_CAT_ID":57802,"ELEMENT_SET_NO":999,"REV_AT_EPOCH":129,"BSTAR":0.00083884,"MEAN_MOTION_DOT":0.00010187,"MEAN_MOTION_DDOT":0},{"OBJECT_NAME":"H-2A R\/B","OBJECT_ID":"2023-137E","EPOCH":"2023-09-15T10:13:09.462144","MEAN_MOTION":0.65768929,"ECCENTRICITY":0.8798189,"INCLINATION":30.3049,"RA_OF_ASC_NODE":15.9978,"ARG_OF_PERICENTER":244.6834,"MEAN_ANOMALY":189.6655,"EPHEMERIS_TYPE":0,"CLASSIFICATION_TYPE":"U","NORAD_CAT_ID":57804,"ELEMENT_SET_NO":999,"REV_AT_EPOCH":6,"BSTAR":0.020223,"MEAN_MOTION_DOT":2.138e-5,"MEAN_MOTION_DDOT":0},{"OBJECT_NAME":"H-2A DEB","OBJECT_ID":"2023-137F","EPOCH":"2023-09-15T13:42:03.187008","MEAN_MOTION":14.9802115,"ECCENTRICITY":0.0010213,"INCLINATION":30.9997,"RA_OF_ASC_NODE":322.3433,"ARG_OF_PERICENTER":359.1793,"MEAN_ANOMALY":0.8823,"EPHEMERIS_TYPE":0,"CLASSIFICATION_TYPE":"U","NORAD_CAT_ID":57805,"ELEMENT_SET_NO":999,"REV_AT_EPOCH":121,"BSTAR":0.0013629,"MEAN_MOTION_DOT":0.0001659,"MEAN_MOTION_DDOT":0},{"OBJECT_NAME":"H-2A DEB","OBJECT_ID":"2023-137G","EPOCH":"2023-09-14T12:50:19.220352","MEAN_MOTION":14.92151139,"ECCENTRICITY":0.0036939,"INCLINATION":31.0385,"RA_OF_ASC_NODE":329.3843,"ARG_OF_PERICENTER":309.5595,"MEAN_ANOMALY":50.1778,"EPHEMERIS_TYPE":0,"CLASSIFICATION_TYPE":"U","NORAD_CAT_ID":57806,"ELEMENT_SET_NO":999,"REV_AT_EPOCH":105,"BSTAR":0.0043629,"MEAN_MOTION_DOT":0.00046295,"MEAN_MOTION_DDOT":0},{"OBJECT_NAME":"H-2A DEB","OBJECT_ID":"2023-137H","EPOCH":"2023-09-15T15:16:47.791200","MEAN_MOTION":14.98194421,"ECCENTRICITY":0.0010519,"INCLINATION":31.0087,"RA_OF_ASC_NODE":321.9032,"ARG_OF_PERICENTER":2.6224,"MEAN_ANOMALY":357.4465,"EPHEMERIS_TYPE":0,"CLASSIFICATION_TYPE":"U","NORAD_CAT_ID":57807,"ELEMENT_SET_NO":999,"REV_AT_EPOCH":121,"BSTAR":0.0014664,"MEAN_MOTION_DOT":0.00017928,"MEAN_MOTION_DDOT":0},{"OBJECT_NAME":"STARLINK-30304","OBJECT_ID":"2023-138A","EPOCH":"2023-09-15T20:00:01.000224","MEAN_MOTION":15.87922069,"ECCENTRICITY":0.0001244,"INCLINATION":43.0011,"RA_OF_ASC_NODE":131.7763,"ARG_OF_PERICENTER":240.8426,"MEAN_ANOMALY":175.8918,"EPHEMERIS_TYPE":0,"CLASSIFICATION_TYPE":"U","NORAD_CAT_ID":57808,"ELEMENT_SET_NO":999,"REV_AT_EPOCH":222,"BSTAR":-0.0028516,"MEAN_MOTION_DOT":-0.00736064,"MEAN_MOTION_DDOT":0}]
